{
  "type": "FeatureCollection",
  "features": [
    {
      "type": "Feature",
      "properties": {
        "norad_id": 39773,
        "name": "EUTELSAT 3B",
        "group": "eutelsat",
        "lat": -0.0322949216983968,
        "lon": -14.373823409386885,
        "alt_km": 35792.318585726374,
        "timestamp": "2025-12-21T16:47:54.400349+00:00",
        "meta_object_name": "EUTELSAT 3B",
        "meta_object_id": "2014-030A",
        "meta_epoch": "2025-12-21T09:47:03.990048",
        "meta_mean_motion": 1.00272683,
        "meta_eccentricity": 0.0004144,
        "meta_inclination": 0.0611,
        "meta_ra_of_asc_node": 8.8637,
        "meta_arg_of_pericenter": 224.6378,
        "meta_mean_anomaly": 6.5896,
        "meta_ephemeris_type": 0,
        "meta_classification_type": "U",
        "meta_norad_cat_id": 39773,
        "meta_element_set_no": 999,
        "meta_rev_at_epoch": 4228,
        "meta_bstar": 0,
        "meta_mean_motion_dot": 4.3e-07,
        "meta_mean_motion_ddot": 0,
        "tle_line1": "1 39773U 14030A   25355.40768507  .00000043  00000+0  00000+0 0  9999",
        "tle_line2": "2 39773   0.0611   8.8637 0004144 224.6378   6.5896  1.00272683 42285"
      },
      "geometry": {
        "type": "Point",
        "coordinates": [
          -14.373823409386885,
          -0.0322949216983968
        ]
      }
    },
    {
      "type": "Feature",
      "properties": {
        "norad_id": 40425,
        "name": "EUTELSAT 115 WEST B",
        "group": "eutelsat",
        "lat": 0.004843906558968993,
        "lon": -132.4265564124529,
        "alt_km": 35787.09420553737,
        "timestamp": "2025-12-21T16:47:54.400361+00:00",
        "meta_object_name": "EUTELSAT 115 WEST B",
        "meta_object_id": "2015-010B",
        "meta_epoch": "2025-12-21T04:29:33.223776",
        "meta_mean_motion": 1.00269059,
        "meta_eccentricity": 3.333e-05,
        "meta_inclination": 0.0159,
        "meta_ra_of_asc_node": 149.3637,
        "meta_arg_of_pericenter": 179.3265,
        "meta_mean_anomaly": 73.8064,
        "meta_ephemeris_type": 0,
        "meta_classification_type": "U",
        "meta_norad_cat_id": 40425,
        "meta_element_set_no": 999,
        "meta_rev_at_epoch": 3960,
        "meta_bstar": 0,
        "meta_mean_motion_dot": -2e-08,
        "meta_mean_motion_ddot": 0,
        "tle_line1": "1 40425U 15010B   25355.18719009 -.00000002  00000+0  00000+0 0  9998",
        "tle_line2": "2 40425   0.0159 149.3637 0000333 179.3265  73.8064  1.00269059 39605"
      },
      "geometry": {
        "type": "Point",
        "coordinates": [
          -132.4265564124529,
          0.004843906558968993
        ]
      }
    },
    {
      "type": "Feature",
      "properties": {
        "norad_id": 40875,
        "name": "EUTELSAT 8 WEST B",
        "group": "eutelsat",
        "lat": -0.03979034689146349,
        "lon": -25.46962626063533,
        "alt_km": 35778.14892471736,
        "timestamp": "2025-12-21T16:47:54.400372+00:00",
        "meta_object_name": "EUTELSAT 8 WEST B",
        "meta_object_id": "2015-039B",
        "meta_epoch": "2025-12-21T09:44:11.763744",
        "meta_mean_motion": 1.00271103,
        "meta_eccentricity": 0.0004264,
        "meta_inclination": 0.0633,
        "meta_ra_of_asc_node": 0.4404,
        "meta_arg_of_pericenter": 270.7946,
        "meta_mean_anomaly": 317.0427,
        "meta_ephemeris_type": 0,
        "meta_classification_type": "U",
        "meta_norad_cat_id": 40875,
        "meta_element_set_no": 999,
        "meta_rev_at_epoch": 3787,
        "meta_bstar": 0,
        "meta_mean_motion_dot": -4.3e-07,
        "meta_mean_motion_ddot": 0,
        "tle_line1": "1 40875U 15039B   25355.40569171 -.00000043  00000+0  00000+0 0  9991",
        "tle_line2": "2 40875   0.0633   0.4404 0004264 270.7946 317.0427  1.00271103 37875"
      },
      "geometry": {
        "type": "Point",
        "coordinates": [
          -25.46962626063533,
          -0.03979034689146349
        ]
      }
    },
    {
      "type": "Feature",
      "properties": {
        "norad_id": 41310,
        "name": "EUTELSAT 9B",
        "group": "eutelsat",
        "lat": -0.06637495316819059,
        "lon": -8.4666266629057,
        "alt_km": 35781.09375488278,
        "timestamp": "2025-12-21T16:47:54.400384+00:00",
        "meta_object_name": "EUTELSAT 9B",
        "meta_object_id": "2016-005A",
        "meta_epoch": "2025-12-21T08:06:13.646880",
        "meta_mean_motion": 1.00272858,
        "meta_eccentricity": 0.0004483,
        "meta_inclination": 0.0641,
        "meta_ra_of_asc_node": 72.0641,
        "meta_arg_of_pericenter": 203.714,
        "meta_mean_anomaly": 304.9349,
        "meta_ephemeris_type": 0,
        "meta_classification_type": "U",
        "meta_norad_cat_id": 41310,
        "meta_element_set_no": 999,
        "meta_rev_at_epoch": 3633,
        "meta_bstar": 0,
        "meta_mean_motion_dot": 8.5e-07,
        "meta_mean_motion_ddot": 0,
        "tle_line1": "1 41310U 16005A   25355.33765795  .00000085  00000+0  00000+0 0  9997",
        "tle_line2": "2 41310   0.0641  72.0641 0004483 203.7140 304.9349  1.00272858 36338"
      },
      "geometry": {
        "type": "Point",
        "coordinates": [
          -8.4666266629057,
          -0.06637495316819059
        ]
      }
    },
    {
      "type": "Feature",
      "properties": {
        "norad_id": 41382,
        "name": "EUTELSAT 65 WEST A",
        "group": "eutelsat",
        "lat": -0.06833283585441156,
        "lon": -82.70869067196205,
        "alt_km": 35776.51780012684,
        "timestamp": "2025-12-21T16:47:54.400396+00:00",
        "meta_object_name": "EUTELSAT 65 WEST A",
        "meta_object_id": "2016-014A",
        "meta_epoch": "2025-12-21T09:34:36.357024",
        "meta_mean_motion": 1.00273703,
        "meta_eccentricity": 0.0002145,
        "meta_inclination": 0.0523,
        "meta_ra_of_asc_node": 334.5828,
        "meta_arg_of_pericenter": 298.799,
        "meta_mean_anomaly": 255.2924,
        "meta_ephemeris_type": 0,
        "meta_classification_type": "U",
        "meta_norad_cat_id": 41382,
        "meta_element_set_no": 999,
        "meta_rev_at_epoch": 3575,
        "meta_bstar": 0,
        "meta_mean_motion_dot": -2.54e-06,
        "meta_mean_motion_ddot": 0,
        "tle_line1": "1 41382U 16014A   25355.39903191 -.00000254  00000+0  00000+0 0  9995",
        "tle_line2": "2 41382   0.0523 334.5828 0002145 298.7990 255.2924  1.00273703 35751"
      },
      "geometry": {
        "type": "Point",
        "coordinates": [
          -82.70869067196205,
          -0.06833283585441156
        ]
      }
    },
    {
      "type": "Feature",
      "properties": {
        "norad_id": 41589,
        "name": "EUTELSAT 117 WEST B",
        "group": "eutelsat",
        "lat": 0.015154780281490787,
        "lon": -134.50776118487332,
        "alt_km": 35786.31898407264,
        "timestamp": "2025-12-21T16:47:54.400407+00:00",
        "meta_object_name": "EUTELSAT 117 WEST B",
        "meta_object_id": "2016-038B",
        "meta_epoch": "2025-12-21T06:20:43.353024",
        "meta_mean_motion": 1.00270341,
        "meta_eccentricity": 3.45e-05,
        "meta_inclination": 0.0057,
        "meta_ra_of_asc_node": 161.4405,
        "meta_arg_of_pericenter": 148.4194,
        "meta_mean_anomaly": 118.4213,
        "meta_ephemeris_type": 0,
        "meta_classification_type": "U",
        "meta_norad_cat_id": 41589,
        "meta_element_set_no": 999,
        "meta_rev_at_epoch": 3487,
        "meta_bstar": 0,
        "meta_mean_motion_dot": 1.1e-07,
        "meta_mean_motion_ddot": 0,
        "tle_line1": "1 41589U 16038B   25355.26439066  .00000011  00000+0  00000+0 0  9991",
        "tle_line2": "2 41589   0.0057 161.4405 0000345 148.4194 118.4213  1.00270341 34875"
      },
      "geometry": {
        "type": "Point",
        "coordinates": [
          -134.50776118487332,
          0.015154780281490787
        ]
      }
    },
    {
      "type": "Feature",
      "properties": {
        "norad_id": 42741,
        "name": "EUTELSAT 172B",
        "group": "eutelsat",
        "lat": 0.020398286009676744,
        "lon": 154.48929498019578,
        "alt_km": 35785.645103731185,
        "timestamp": "2025-12-21T16:47:54.400419+00:00",
        "meta_object_name": "EUTELSAT 172B",
        "meta_object_id": "2017-029B",
        "meta_epoch": "2025-12-21T03:54:38.769408",
        "meta_mean_motion": 1.00271576,
        "meta_eccentricity": 2.14e-05,
        "meta_inclination": 0.0339,
        "meta_ra_of_asc_node": 123.0997,
        "meta_arg_of_pericenter": 332.7082,
        "meta_mean_anomaly": 224.8432,
        "meta_ephemeris_type": 0,
        "meta_classification_type": "U",
        "meta_norad_cat_id": 42741,
        "meta_element_set_no": 999,
        "meta_rev_at_epoch": 3194,
        "meta_bstar": 0,
        "meta_mean_motion_dot": 1.7e-07,
        "meta_mean_motion_ddot": 0,
        "tle_line1": "1 42741U 17029B   25355.16294872  .00000017  00000+0  00000+0 0  9992",
        "tle_line2": "2 42741   0.0339 123.0997 0000214 332.7082 224.8432  1.00271576 31949"
      },
      "geometry": {
        "type": "Point",
        "coordinates": [
          154.48929498019578,
          0.020398286009676744
        ]
      }
    }
  ]
}